GLOBALSTAR M024         
1 25883U 99043A   25230.80136416 -.00000040  00000+0  88186-3 0  9990
2 25883  51.9973 239.3449 0001418 209.3829 321.5943 11.10163944121813
GLOBALSTAR M027         
1 25884U 99043B   25230.49712563 -.00000040  00000+0  89078-3 0  9990
2 25884  52.0239 319.7807 0021890  92.8225 267.5074 11.04371848148127
GLOBALSTAR M054         
1 25885U 99043C   25230.97061709 -.00000162  00000+0 -23093-2 0  9993
2 25885  52.0138  75.4849 0004645 286.8833 219.6182 11.39220931126530
GLOBALSTAR M053         
1 25886U 99043D   25230.65978983 -.00000066  00000+0  88689-4 0  9996
2 25886  52.0008  26.7892 0003338 173.6353 272.4959 11.27666208126494
GLOBALSTAR M050         
1 25908U 99049B   25230.38699042 -.00000097  00000+0 -10193-3 0  9992
2 25908  52.0005 306.1169 0009543 154.6084 284.4436 12.07455779155709
